H1 CPF 01  gfz 2021 07 01 00  6821 terrasarx 
H2 0702601  6201 31698    2021 07 01 00 59 42 2021 07 06 00 00 42   120 1 1  0 0 0
H9
10 0 59400  22302.000000  0    1558493.561    800706.521   6651390.059
10 0 59400  22422.000000  0    2437220.450    706463.934   6393737.203
10 0 59400  22542.000000  0    3271526.388    584900.358   6023708.387
10 0 59400  22662.000000  0    4046381.140    439043.176   5547773.011
10 0 59400  22782.000000  0    4747838.711    272599.007   4974262.233
10 0 59400  22902.000000  0    5363294.093     89868.067   4313229.451
10 0 59400  23022.000000  0    5881718.741   -104356.267   3576279.387
10 0 59400  23142.000000  0    6293868.889   -304900.187   2776366.725
10 0 59400  23262.000000  0    6592460.713   -506333.149   1927566.964
10 0 59400  23382.000000  0    6772306.710   -703100.466   1044825.437
10 0 59400  23502.000000  0    6830413.196   -889659.670    143688.931
10 0 59400  23622.000000  0    6766034.456  -1060617.985   -759976.927
10 0 59400  23742.000000  0    6580679.281  -1210867.764  -1650276.536
10 0 59400  23862.000000  0    6278072.765  -1335715.605  -2511572.194
10 0 59400  23982.000000  0    5864073.355  -1431002.299  -3328765.045
10 0 59400  24102.000000  0    5346548.982  -1493210.557  -4087562.796
10 0 59400  24222.000000  0    4735215.769  -1519557.461  -4774729.110
10 0 59400  24342.000000  0    4041444.442  -1508070.325  -5378310.439
10 0 59400  24462.000000  0    3278038.420  -1457645.094  -5887836.813
10 0 59400  24582.000000  0    2458989.876  -1368085.251  -6294492.791
10 0 59400  24702.000000  0    1599220.203  -1240120.343  -6591259.035
10 0 59400  24822.000000  0     714307.686  -1075405.038  -6773022.848
10 0 59400  24942.000000  0    -179791.577   -876499.453  -6836656.918
10 0 59400  25062.000000  0   -1067025.708   -646829.761  -6781066.802
10 0 59400  25182.000000  0   -1931528.444   -390630.487  -6607208.117
10 0 59400  25302.000000  0   -2757896.799   -112868.309  -6318071.000
10 0 59400  25422.000000  0   -3531458.975    180850.401  -5918633.682
10 0 59400  25542.000000  0   -4238532.093    484388.114  -5415787.077
10 0 59400  25662.000000  0   -4866665.631    791198.610  -4818226.421
10 0 59400  25782.000000  0   -5404865.617   1094461.591  -4136313.562
10 0 59400  25902.000000  0   -5843796.604   1387228.728  -3381907.751
10 0 59400  26022.000000  0   -6175954.442   1662576.338  -2568166.968
10 0 59400  26142.000000  0   -6395806.816   1913761.496  -1709322.986
10 0 59400  26262.000000  0   -6499897.902   2134378.741   -820433.323
10 0 59400  26382.000000  0   -6486912.928   2318512.870     82886.727
10 0 59400  26502.000000  0   -6357699.449   2460883.457    984745.470
10 0 59400  26622.000000  0   -6115244.890   2556978.263   1869262.497
10 0 59400  26742.000000  0   -5764610.789   2603171.743   2720857.666
10 0 59400  26862.000000  0   -5312825.181   2596824.713   3524533.747
10 0 59400  26982.000000  0   -4768736.212   2536362.616   4266147.650
10 0 59400  27102.000000  0   -4142830.378   2421330.955   4932662.360
10 0 59400  27222.000000  0   -3447022.479   2252427.217   5512375.968
10 0 59400  27342.000000  0   -2694421.359   2031508.971   5995125.426
10 0 59400  27462.000000  0   -1899075.171   1761577.390   6372460.917
10 0 59400  27582.000000  0   -1075703.271   1446736.407   6637787.704
10 0 59400  27702.000000  0    -239420.840   1092129.107   6786473.857
10 0 59400  27822.000000  0     594538.232    703852.689   6815925.431
10 0 59400  27942.000000  0    1411097.845    288853.405   6725628.725
10 0 59400  28062.000000  0    2195610.823   -145196.976   6517158.710
10 0 59400  28182.000000  0    2934120.853   -590042.214   6194154.395
10 0 59400  28302.000000  0    3613612.186  -1036997.465   5762259.939
10 0 59400  28422.000000  0    4222242.610  -1477117.567   5229031.493
10 0 59400  28542.000000  0    4749554.274  -1901375.474   4603810.615
10 0 59400  28662.000000  0    5186660.317  -2300846.513   3897566.871
10 0 59400  28782.000000  0    5526403.995  -2666895.922   3122709.028
10 0 59400  28902.000000  0    5763483.628  -2991364.885   2292866.567
10 0 59400  29022.000000  0    5894540.840  -3266750.343   1422648.102
10 0 59400  29142.000000  0    5918211.965  -3486375.335    527379.728
10 0 59400  29262.000000  0    5835138.036  -3644543.801   -377172.766
10 0 59400  29382.000000  0    5647935.291  -3736676.901  -1275090.104
10 0 59400  29502.000000  0    5361124.171  -3759425.887  -2150589.459
10 0 59400  29622.000000  0    4981020.743  -3710759.643  -2988308.660
10 0 59400  29742.000000  0    4515593.784  -3590025.715  -3773580.546
10 0 59400  29862.000000  0    3974290.902  -3397982.628  -4492691.083
10 0 59400  29982.000000  0    3367839.068  -3136803.430  -5133116.567
10 0 59400  30102.000000  0    2708024.861  -2810050.314  -5683734.969
10 0 59400  30222.000000  0    2007461.196  -2422623.643  -6135008.776
10 0 59400  30342.000000  0    1279344.947  -1980686.263  -6479140.530
10 0 59400  30462.000000  0     537207.893  -1491562.012  -6710197.826
10 0 59400  30582.000000  0    -205332.335   -963612.902  -6824204.675
10 0 59400  30702.000000  0    -934817.063   -406097.509  -6819201.606
10 0 59400  30822.000000  0   -1638184.563    170987.899  -6695275.484
10 0 59400  30942.000000  0   -2302998.726    757084.249  -6454557.436
10 0 59400  31062.000000  0   -2917663.798   1341257.668  -6101190.045
10 0 59400  31182.000000  0   -3471623.450   1912398.387  -5641264.205
10 0 59400  31302.000000  0   -3955543.061   2459428.211  -5082725.872
10 0 59400  31422.000000  0   -4361471.639   2971513.944  -4435250.062
10 0 59400  31542.000000  0   -4682978.236   3438281.674  -3710082.972
10 0 59400  31662.000000  0   -4915260.755   3850028.223  -2919856.392
10 0 59400  31782.000000  0   -5055225.364   4197925.642  -2078373.758
10 0 59400  31902.000000  0   -5101533.027   4474212.701  -1200371.761
10 0 59400  32022.000000  0   -5054612.545   4672369.666   -301260.984
10 0 59400  32142.000000  0   -4916637.597   4787271.155    603149.880
10 0 59400  32262.000000  0   -4691468.020   4815312.060   1496940.404
10 0 59400  32382.000000  0   -4384556.450   4754502.160   2364368.509
10 0 59400  32502.000000  0   -4002821.676   4604528.331   3190156.677
10 0 59400  32622.000000  0   -3554493.535   4366782.523   3959767.856
10 0 59400  32742.000000  0   -3048934.124   4044354.974   4659665.815
10 0 59400  32862.000000  0   -2496439.288   3641993.446   5277555.678
10 0 59400  32982.000000  0   -1908024.571   3166028.795   5802599.143
10 0 59400  33102.000000  0   -1295201.512   2624269.639   6225600.796
10 0 59400  33222.000000  0    -669749.271   2025868.231   6539162.770
10 0 59400  33342.000000  0     -43488.290   1381162.108   6737806.770
10 0 59400  33462.000000  0     571942.823    701493.237   6818064.998
10 0 59400  33582.000000  0    1165303.002      -992.030   6778536.037
10 0 59400  33702.000000  0    1725952.798   -713559.008   6619908.260
10 0 59400  33822.000000  0    2244044.624  -1423115.098   6344949.104
10 0 59400  33942.000000  0    2710696.117  -2116449.380   5958460.509
10 0 59400  34062.000000  0    3118144.895  -2780479.331   5467200.603
10 0 59400  34182.000000  0    3459880.526  -3402499.316   4879771.137
10 0 59400  34302.000000  0    3730752.110  -3970427.095   4206472.876
10 0 59400  34422.000000  0    3927049.836  -4473043.432   3459129.192
10 0 59400  34542.000000  0    4046557.105  -4900219.534   2650880.138
10 0 59400  34662.000000  0    4088572.911  -5243126.996   1795950.458
10 0 59400  34782.000000  0    4053903.204  -5494424.598    909395.061
10 0 59400  34902.000000  0    3944820.706  -5648416.671      6827.250
10 0 59400  35022.000000  0    3764995.636  -5701179.896   -895863.217
10 0 59400  35142.000000  0    3519397.464  -5650655.739  -1782799.638
10 0 59400  35262.000000  0    3214170.005  -5496703.509  -2638405.574
10 0 59400  35382.000000  0    2856485.094  -5241115.601  -3447684.728
10 0 59400  35502.000000  0    2454376.592  -4887593.141  -4196487.593
10 0 59400  35622.000000  0    2016560.080  -4441683.976  -4871758.003
10 0 59400  35742.000000  0    1552244.108  -3910685.315  -5461755.566
10 0 59400  35862.000000  0    1070937.962  -3303514.806  -5956251.179
10 0 59400  35982.000000  0     582258.412  -2630553.846  -6346694.022
10 0 59400  36102.000000  0      95739.656  -1903465.510  -6626348.465
10 0 59400  36222.000000  0    -379349.035  -1134990.402  -6790399.428
10 0 59400  36342.000000  0    -834174.902   -338724.652  -6836026.524
10 0 59400  36462.000000  0   -1260501.411    471116.497  -6762446.635
10 0 59400  36582.000000  0   -1650834.028   1279945.874  -6570925.196
10 0 59400  36702.000000  0   -1998548.769   2073060.639  -6264756.659
10 0 59400  36822.000000  0   -2298002.941   2835902.966  -5849214.727
10 0 59400  36942.000000  0   -2544627.149   3554324.093  -5331471.533
10 0 59400  37062.000000  0   -2734996.110   4214846.156  -4720485.415
10 0 59400  37182.000000  0   -2866878.073   4804918.465  -4026856.966
10 0 59400  37302.000000  0   -2939259.972   5313161.348  -3262653.496
10 0 59400  37422.000000  0   -2952347.668   5729591.853  -2441206.808
10 0 59400  37542.000000  0   -2907542.590   6045829.892  -1576886.132
10 0 59400  37662.000000  0   -2807392.618   6255276.622   -684846.036
10 0 59400  37782.000000  0   -2655519.274   6353258.408    219241.671
10 0 59400  37902.000000  0   -2456524.201   6337138.056   1119469.024
10 0 59400  38022.000000  0   -2215872.582   6206383.354   1999983.746
10 0 59400  38142.000000  0   -1939758.050   5962589.995   2845278.172
10 0 59400  38262.000000  0   -1634954.538   5609462.245   3640469.561
10 0 59400  38382.000000  0   -1308658.739   5152752.269   4371567.281
10 0 59400  38502.000000  0    -968326.683   4600159.016   5025722.606
10 0 59400  38622.000000  0    -621506.490   3961188.579   5591454.573
10 0 59400  38742.000000  0    -275674.707   3246982.298   6058847.978
99
